{
  "type": "FeatureCollection",
  "features": [
    {
      "type": "Feature",
      "properties": {
        "norad_id": 25590,
        "name": "COSMOS 2361",
        "group": "musson",
        "lat": -20.256800761411135,
        "lon": -24.14028443291332,
        "alt_km": 995.4309564221685,
        "timestamp": "2025-12-20T07:33:51.082767+00:00",
        "meta_object_name": "COSMOS 2361",
        "meta_object_id": "1998-076A",
        "meta_epoch": "2025-12-19T23:00:28.361376",
        "meta_mean_motion": 13.73218354,
        "meta_eccentricity": 0.00301559,
        "meta_inclination": 82.9341,
        "meta_ra_of_asc_node": 338.7468,
        "meta_arg_of_pericenter": 244.6682,
        "meta_mean_anomaly": 133.22,
        "meta_ephemeris_type": 0,
        "meta_classification_type": "U",
        "meta_norad_cat_id": 25590,
        "meta_element_set_no": 999,
        "meta_rev_at_epoch": 35210,
        "meta_bstar": 4.2043401e-05,
        "meta_mean_motion_dot": 5.4e-07,
        "meta_mean_motion_ddot": 0,
        "tle_line1": "1 25590U 98076A   25353.95866159  .00000054  00000+0  42043-4 0  9993",
        "tle_line2": "2 25590  82.9341 338.7468 0030155 244.6682 133.2200 13.73218354352104"
      },
      "geometry": {
        "type": "Point",
        "coordinates": [
          -24.14028443291332,
          -20.256800761411135
        ]
      }
    },
    {
      "type": "Feature",
      "properties": {
        "norad_id": 26818,
        "name": "COSMOS 2378",
        "group": "musson",
        "lat": 75.02835077954111,
        "lon": 21.77041363553142,
        "alt_km": 984.5284067905704,
        "timestamp": "2025-12-20T07:33:51.082788+00:00",
        "meta_object_name": "COSMOS 2378",
        "meta_object_id": "2001-023A",
        "meta_epoch": "2025-12-19T10:45:28.864800",
        "meta_mean_motion": 13.74142545,
        "meta_eccentricity": 0.0032813,
        "meta_inclination": 82.927,
        "meta_ra_of_asc_node": 354.7502,
        "meta_arg_of_pericenter": 186.0025,
        "meta_mean_anomaly": 284.9718,
        "meta_ephemeris_type": 0,
        "meta_classification_type": "U",
        "meta_norad_cat_id": 26818,
        "meta_element_set_no": 999,
        "meta_rev_at_epoch": 23015,
        "meta_bstar": 3.5693e-05,
        "meta_mean_motion_dot": 4.9e-07,
        "meta_mean_motion_ddot": 0,
        "tle_line1": "1 26818U 01023A   25353.44825075  .00000049  00000+0  35693-4 0  9996",
        "tle_line2": "2 26818  82.9270 354.7502 0032813 186.0025 284.9718 13.74142545230156"
      },
      "geometry": {
        "type": "Point",
        "coordinates": [
          21.77041363553142,
          75.02835077954111
        ]
      }
    },
    {
      "type": "Feature",
      "properties": {
        "norad_id": 27436,
        "name": "COSMOS 2389",
        "group": "musson",
        "lat": -48.480009666739285,
        "lon": -66.65688509362428,
        "alt_km": 987.1684266941984,
        "timestamp": "2025-12-20T07:33:51.082801+00:00",
        "meta_object_name": "COSMOS 2389",
        "meta_object_id": "2002-026A",
        "meta_epoch": "2025-12-19T21:35:03.860736",
        "meta_mean_motion": 13.75155415,
        "meta_eccentricity": 0.00473688,
        "meta_inclination": 82.9508,
        "meta_ra_of_asc_node": 301.6845,
        "meta_arg_of_pericenter": 41.2545,
        "meta_mean_anomaly": 12.9914,
        "meta_ephemeris_type": 0,
        "meta_classification_type": "U",
        "meta_norad_cat_id": 27436,
        "meta_element_set_no": 999,
        "meta_rev_at_epoch": 18247,
        "meta_bstar": 3.2199124e-05,
        "meta_mean_motion_dot": 4.6e-07,
        "meta_mean_motion_ddot": 0,
        "tle_line1": "1 27436U 02026A   25353.89935024  .00000046  00000+0  32199-4 0  9997",
        "tle_line2": "2 27436  82.9508 301.6845 0047368  41.2545  12.9914 13.75155415182477"
      },
      "geometry": {
        "type": "Point",
        "coordinates": [
          -66.65688509362428,
          -48.480009666739285
        ]
      }
    },
    {
      "type": "Feature",
      "properties": {
        "norad_id": 27818,
        "name": "COSMOS 2398",
        "group": "musson",
        "lat": -9.320598128675023,
        "lon": 88.28009434114398,
        "alt_km": 998.2191390120943,
        "timestamp": "2025-12-20T07:33:51.082813+00:00",
        "meta_object_name": "COSMOS 2398",
        "meta_object_id": "2003-023A",
        "meta_epoch": "2025-12-19T20:27:55.410624",
        "meta_mean_motion": 13.72386446,
        "meta_eccentricity": 0.00327313,
        "meta_inclination": 82.9484,
        "meta_ra_of_asc_node": 267.4568,
        "meta_arg_of_pericenter": 92.8147,
        "meta_mean_anomaly": 332.5988,
        "meta_ephemeris_type": 0,
        "meta_classification_type": "U",
        "meta_norad_cat_id": 27818,
        "meta_element_set_no": 999,
        "meta_rev_at_epoch": 12914,
        "meta_bstar": 5.2249183e-05,
        "meta_mean_motion_dot": 6.3e-07,
        "meta_mean_motion_ddot": 0,
        "tle_line1": "1 27818U 03023A   25353.85272466  .00000063  00000+0  52249-4 0  9996",
        "tle_line2": "2 27818  82.9484 267.4568 0032731  92.8147 332.5988 13.72386446129147"
      },
      "geometry": {
        "type": "Point",
        "coordinates": [
          88.28009434114398,
          -9.320598128675023
        ]
      }
    },
    {
      "type": "Feature",
      "properties": {
        "norad_id": 28380,
        "name": "COSMOS 2407",
        "group": "musson",
        "lat": 47.38902376217716,
        "lon": 19.56393311486143,
        "alt_km": 976.6915973632722,
        "timestamp": "2025-12-20T07:33:51.082824+00:00",
        "meta_object_name": "COSMOS 2407",
        "meta_object_id": "2004-028A",
        "meta_epoch": "2025-12-19T20:30:35.407872",
        "meta_mean_motion": 13.76314495,
        "meta_eccentricity": 0.00400108,
        "meta_inclination": 82.9599,
        "meta_ra_of_asc_node": 207.6249,
        "meta_arg_of_pericenter": 35.4572,
        "meta_mean_anomaly": 335.2999,
        "meta_ephemeris_type": 0,
        "meta_classification_type": "U",
        "meta_norad_cat_id": 28380,
        "meta_element_set_no": 999,
        "meta_rev_at_epoch": 7521,
        "meta_bstar": 6.1812249e-05,
        "meta_mean_motion_dot": 7.6e-07,
        "meta_mean_motion_ddot": 0,
        "tle_line1": "1 28380U 04028A   25353.85457648  .00000076  00000+0  61812-4 0  9994",
        "tle_line2": "2 28380  82.9599 207.6249 0040010  35.4572 335.2999 13.76314495 75214"
      },
      "geometry": {
        "type": "Point",
        "coordinates": [
          19.56393311486143,
          47.38902376217716
        ]
      }
    },
    {
      "type": "Feature",
      "properties": {
        "norad_id": 28521,
        "name": "COSMOS 2414",
        "group": "musson",
        "lat": -9.708285386644995,
        "lon": 177.71804487949888,
        "alt_km": 958.6750910842611,
        "timestamp": "2025-12-20T07:33:51.082835+00:00",
        "meta_object_name": "COSMOS 2414",
        "meta_object_id": "2005-002A",
        "meta_epoch": "2025-12-19T21:13:48.405792",
        "meta_mean_motion": 13.87903877,
        "meta_eccentricity": 0.00412423,
        "meta_inclination": 82.9488,
        "meta_ra_of_asc_node": 179.257,
        "meta_arg_of_pericenter": 119.7952,
        "meta_mean_anomaly": 240.7322,
        "meta_ephemeris_type": 0,
        "meta_classification_type": "U",
        "meta_norad_cat_id": 28521,
        "meta_element_set_no": 999,
        "meta_rev_at_epoch": 5894,
        "meta_bstar": 4.4947438e-05,
        "meta_mean_motion_dot": 7e-07,
        "meta_mean_motion_ddot": 0,
        "tle_line1": "1 28521U 05002A   25353.88458803  .00000070  00000+0  44947-4 0  9995",
        "tle_line2": "2 28521  82.9488 179.2570 0041242 119.7952 240.7322 13.87903877 58946"
      },
      "geometry": {
        "type": "Point",
        "coordinates": [
          177.71804487949888,
          -9.708285386644995
        ]
      }
    },
    {
      "type": "Feature",
      "properties": {
        "norad_id": 32052,
        "name": "COSMOS 2429",
        "group": "musson",
        "lat": 41.804114655240426,
        "lon": 151.39865105701554,
        "alt_km": 992.2190855946255,
        "timestamp": "2025-12-20T07:33:51.082860+00:00",
        "meta_object_name": "COSMOS 2429",
        "meta_object_id": "2007-038A",
        "meta_epoch": "2025-12-19T22:10:04.648224",
        "meta_mean_motion": 13.75150119,
        "meta_eccentricity": 0.00388312,
        "meta_inclination": 82.9805,
        "meta_ra_of_asc_node": 338.0125,
        "meta_arg_of_pericenter": 18.16,
        "meta_mean_anomaly": 342.0932,
        "meta_ephemeris_type": 0,
        "meta_classification_type": "U",
        "meta_norad_cat_id": 32052,
        "meta_element_set_no": 999,
        "meta_rev_at_epoch": 91701,
        "meta_bstar": 3.813189e-05,
        "meta_mean_motion_dot": 5.2e-07,
        "meta_mean_motion_ddot": 0,
        "tle_line1": "1 32052U 07038A   25353.92366491  .00000052  00000+0  38132-4 0  9995",
        "tle_line2": "2 32052  82.9805 338.0125 0038831  18.1600 342.0932 13.75150119917011"
      },
      "geometry": {
        "type": "Point",
        "coordinates": [
          151.39865105701554,
          41.804114655240426
        ]
      }
    },
    {
      "type": "Feature",
      "properties": {
        "norad_id": 35635,
        "name": "COSMOS 2454",
        "group": "musson",
        "lat": 80.59398071901686,
        "lon": -65.37892662181976,
        "alt_km": 910.6318867435984,
        "timestamp": "2025-12-20T07:33:51.082873+00:00",
        "meta_object_name": "COSMOS 2454",
        "meta_object_id": "2009-039A",
        "meta_epoch": "2025-12-19T22:59:24.223200",
        "meta_mean_motion": 13.89929517,
        "meta_eccentricity": 0.00202398,
        "meta_inclination": 82.9555,
        "meta_ra_of_asc_node": 163.1731,
        "meta_arg_of_pericenter": 54.3996,
        "meta_mean_anomaly": 55.0826,
        "meta_ephemeris_type": 0,
        "meta_classification_type": "U",
        "meta_norad_cat_id": 35635,
        "meta_element_set_no": 999,
        "meta_rev_at_epoch": 83250,
        "meta_bstar": 3.5968918e-05,
        "meta_mean_motion_dot": 6e-07,
        "meta_mean_motion_ddot": 0,
        "tle_line1": "1 35635U 09039A   25353.95791925  .00000060  00000+0  35969-4 0  9999",
        "tle_line2": "2 35635  82.9555 163.1731 0020239  54.3996  55.0826 13.89929517832500"
      },
      "geometry": {
        "type": "Point",
        "coordinates": [
          -65.37892662181976,
          80.59398071901686
        ]
      }
    },
    {
      "type": "Feature",
      "properties": {
        "norad_id": 36519,
        "name": "COSMOS 2463",
        "group": "musson",
        "lat": -1.2539797973143392,
        "lon": 20.990800196315007,
        "alt_km": 997.7474342795931,
        "timestamp": "2025-12-20T07:33:51.082883+00:00",
        "meta_object_name": "COSMOS 2463",
        "meta_object_id": "2010-017A",
        "meta_epoch": "2025-12-19T12:50:56.753376",
        "meta_mean_motion": 13.71649731,
        "meta_eccentricity": 0.0034742,
        "meta_inclination": 82.9605,
        "meta_ra_of_asc_node": 21.7186,
        "meta_arg_of_pericenter": 268.4983,
        "meta_mean_anomaly": 201.5375,
        "meta_ephemeris_type": 0,
        "meta_classification_type": "U",
        "meta_norad_cat_id": 36519,
        "meta_element_set_no": 999,
        "meta_rev_at_epoch": 78330,
        "meta_bstar": 5.2986e-05,
        "meta_mean_motion_dot": 6.3e-07,
        "meta_mean_motion_ddot": 0,
        "tle_line1": "1 36519U 10017A   25353.53537909  .00000063  00000+0  52986-4 0  9994",
        "tle_line2": "2 36519  82.9605  21.7186 0034742 268.4983 201.5375 13.71649731783307"
      },
      "geometry": {
        "type": "Point",
        "coordinates": [
          20.990800196315007,
          -1.2539797973143392
        ]
      }
    }
  ]
}